INTELSAT 10 (IS-10)     
1 26766U 01019A   25273.94646404 -.00000028  00000+0  00000+0 0  9993
2 26766   8.4497  61.8784 0004000 187.5659 193.2478  0.99074851 43015
INTELSAT 902 (IS-902)   
1 26900U 01039A   25272.31989225 -.00000278  00000+0  00000+0 0  9993
2 26900   5.4543  74.9568 0004246 114.6031 243.8410  1.00270404 88074
INTELSAT 904 (IS-904)   
1 27380U 02007A   25274.11155771 -.00000198  00000+0  00000+0 0  9994
2 27380   6.2665  72.2775 0002867  80.0039 230.4979  1.00272146 49167
DIRECTV 5 (TEMPO 1)     
1 27426U 02023A   25274.04916449 -.00000053  00000+0  00000+0 0  9992
2 27426   4.2095  78.5384 0003303 118.9415  80.1633  1.00272032 85524
INTELSAT 905 (IS-905)   
1 27438U 02027A   25267.05013373  .00000096  00000+0  00000+0 0  9992
2 27438   6.0797  72.9940 0002308 114.9929  56.0349  1.00274852 48697
GALAXY 3C (G-3C)        
1 27445U 02030A   25273.98078418 -.00000149  00000+0  00000+0 0  9994
2 27445   3.0713  81.2663 0002088  57.4323 129.5355  1.00271923 43895
INTELSAT 906 (IS-906)   
1 27513U 02041A   25274.10129994  .00000017  00000+0  00000+0 0  9996
2 27513   5.1405  76.1042 0003497 149.6450 244.9595  1.00272765 84434
GALAXY 13 (HORIZONS-1)  
1 27954U 03044A   25274.04127779  .00000135  00000+0  00000+0 0  9992
2 27954   0.7438  87.5078 0002190 107.9504  39.4516  1.00273877 43970
INTELSAT 10-02          
1 28358U 04022A   25274.09489315 -.00000009  00000+0  00000+0 0  9991
2 28358   0.0182 217.5310 0000666 342.0783 203.6785  1.00271451 77953
XM-3 (RHYTHM)           
1 28626U 05008A   25272.55524877 -.00000196  00000+0  00000+0 0  9993
2 28626   0.0395  12.3582 0000152 311.9908 157.7902  1.00271263 40011
DIRECTV 8               
1 28659U 05019A   25273.54782604  .00000000  00000+0  00000+0 0  9998
2 28659   0.0209 175.9903 0003199  24.7707 246.9557  1.00271368 74463
GALAXY 28 (G-28)        
1 28702U 05022A   25274.05341117 -.00000184  00000+0  00000+0 0  9992
2 28702   2.6276  82.1520 0001601 111.2021 107.2270  1.00271692 49389
GALAXY 16 (G-16)        
1 29236U 06023A   25274.05133117 -.00000125  00000+0  00000+0 0  9991
2 29236   0.0227 205.3504 0002626 338.7858 105.3936  1.00270009 70375
DIRECTV 9S              
1 29494U 06043A   25273.83679250 -.00000111  00000+0  00000+0 0  9992
2 29494   1.7450  84.0696 0003020 109.2787  16.5418  1.00272145 48783
GALAXY 17 (G-17)        
1 31307U 07016B   25274.05410451 -.00000203  00000+0  00000+0 0  9992
2 31307   2.3097  83.1841 0005288 148.5396  72.8256  1.00271450 67206
DIRECTV 10              
1 31862U 07032A   25273.55103273 -.00000101  00000+0  00000+0 0  9998
2 31862   0.0102 307.9054 0000688 288.4633 228.7809  1.00272917 42998
INTELSAT 11 (IS-11)     
1 32253U 07044B   25273.82240576 -.00000113  00000+0  00000+0 0  9997
2 32253   2.8831  81.8506 0008151 125.8430 284.5147  0.99053089 65886
HORIZONS-2              
1 32388U 07063B   25273.98503087 -.00000251  00000+0  00000+0 0  9996
2 32388   1.9266  83.8314 0002530 138.9943  67.9837  1.00270909 65216
DIRECTV 11              
1 32729U 08013A   25273.48031242 -.00000124  00000+0  00000+0 0  9994
2 32729   0.0183 344.8078 0000326 119.5683 338.8467  1.00271797 42981
GALAXY 18 (G-18)        
1 32951U 08024A   25274.04656448  .00000027  00000+0  00000+0 0  9998
2 32951   0.0022  90.4718 0003009 100.2590  73.0740  1.00272172 43251
INTELSAT 25 (IS-25)     
1 33153U 08034A   25274.11155771 -.00000221  00000+0  00000+0 0  9992
2 33153   2.0337  83.5223 0004606 128.9691 166.2896  1.00271684 63092
GALAXY 19 (G-19)        
1 33376U 08045A   25274.05176449 -.00000137  00000+0  00000+0 0  9995
2 33376   0.0369 258.4594 0002752 285.0665 108.1597  1.00269564 62302
FM-5                    
1 35493U 09034A   25273.98251752 -.00000199  00000+0  00000+0 0  9996
2 35493   0.0315 261.7697 0000877 200.5828 175.1953  1.00270933 44048
INTELSAT 14 (IS-14)     
1 36097U 09064A   25274.14813146  .00000000  00000+0  00000+0 0  9990
2 36097   0.0143 177.2583 0002667  26.7207 174.4878  1.00268293 58006
INTELSAT 15 (IS-15)     
1 36106U 09067A   25274.10094772 -.00000184  00000+0  00000+0 0  9990
2 36106   0.0212 258.7062 0002249 283.4715 309.4196  1.00270917 38639
DIRECTV 12              
1 36131U 09075A   25273.02627573 -.00000101  00000+0  00000+0 0  9997
2 36131   0.0294   9.1474 0000366 173.6093  93.0366  1.00272364 43942
INTELSAT 16 (IS-16)     
1 36397U 10006A   25274.12343287 -.00000243  00000+0  00000+0 0  9993
2 36397   0.0238 270.0888 0002372 289.3907 138.8777  1.00270789 57050
XM-5                    
1 37185U 10053A   25273.54869272 -.00000020  00000+0  00000+0 0  9996
2 37185   0.0638 269.0350 0000922 182.2911   0.5685  1.00266298 54877
INTELSAT 17 (IS-17)     
1 37238U 10065B   25274.50310328 -.00000001  00000+0  00000+0 0  9997
2 37238   0.0240 222.0386 0002624 342.1480  53.4271  1.00273806 50655
INTELSAT 28 (IS-28)     
1 37392U 11016A   25274.11155771 -.00000222  00000+0  00000+0 0  9996
2 37392   1.1300  85.9815 0004071 107.4265 185.1759  1.00272774 50689
INTELSAT 18 (IS-18)     
1 37834U 11056A   25273.82119243  .00000055  00000+0  00000+0 0  9995
2 37834   0.0180 159.8660 0001865  14.5548 311.0308  1.00272514 51215
INTELSAT 22 (IS-22)     
1 38098U 12011A   25274.11780780 -.00000058  00000+0  00000+0 0  9997
2 38098   0.0233 238.6268 0002168 326.9412 279.0559  1.00274272  4597
INTELSAT 19 (IS-19)     
1 38356U 12030A   25273.81841907 -.00000054  00000+0  00000+0 0  9996
2 38356   0.0165 232.8146 0002925 311.3190 286.3338  1.00272729 47858
INTELSAT 20 (IS-20)     
1 38740U 12043A   25274.08452464 -.00000022  00000+0  00000+0 0  9998
2 38740   0.0092 185.1071 0001875 339.9117 303.9817  1.00268052 48155
INTELSAT 21 (IS-21)     
1 38749U 12045A   25273.98815088 -.00000283  00000+0  00000+0 0  9991
2 38749   0.0182 109.1211 0002034  87.3163 111.2940  1.00270674 47923
INTELSAT 23 (IS-23)     
1 38867U 12057A   25273.56572281 -.00000283  00000+0  00000+0 0  9994
2 38867   0.0234 240.6065 0001681 359.8879 279.7260  1.00264352 47356
FM-6                    
1 39360U 13058A   25272.56253215 -.00000014  00000+0  00000+0 0  9999
2 39360   0.0171 116.6369 0002502  62.8004 275.4951  1.00272683 43440
INTELSAT 30 (IS-30)     
1 40271U 14062A   25273.55259274  .00000000  00000+0  00000+0 0  9993
2 40271   0.0120 173.1324 0001860 252.8697  47.4195  1.00268029  4185
DIRECTV 14              
1 40333U 14078B   25273.55181274  .00000000  00000+0  00000+0 0  9993
2 40333   0.0197 178.0846 0000828  18.4567 272.4303  1.00273081 39448
DIRECTV 15              
1 40663U 15026A   25274.05055116 -.00000101  00000+0  00000+0 0  9997
2 40663   0.0365  89.3573 0000591  22.6535 173.3770  1.00268885 37868
SKY MEXICO-1            
1 40664U 15026B   25274.26314072 -.00000233  00000+0  00000+0 0  9996
2 40664   0.0233 262.9071 0002273 294.6628 188.6560  1.00270667 37854
INTELSAT 34 (IS-34)     
1 40874U 15039A   25273.98858421 -.00000284  00000+0  00000+0 0  9998
2 40874   0.0285 268.7274 0001713 126.2802 275.3859  1.00270214 37027
INTELSAT 31 (IS-31)     
1 41581U 16035A   25273.55259274 -.00000149  00000+0  00000+0 0  9995
2 41581   0.0216 236.5399 0001389 342.7140 254.1830  1.00271693 34086
INTELSAT 36 (IS-36)     
1 41747U 16053A   25274.08452465  .00000000  00000+0  00000+0 0  9990
2 41747   0.0113 187.9167 0001504 164.1089 116.9565  1.00269109 33353
INTELSAT 32E (IS-32E)   
1 41945U 17007B   25274.15404002 -.00000267  00000+0  00000+0 0  9998
2 41945   0.0169 113.0052 0000616 280.3688 349.0544  1.00269727 31626
INTELSAT 35E (IS-35E)   
1 42818U 17041A   25274.16465922 -.00000236  00000+0  00000+0 0  9991
2 42818   0.0161 245.7328 0003006 335.4148 173.8099  1.00271632 30216
INTELSAT 37E (IS-37E)   
1 42950U 17059A   25274.00940822 -.00000139  00000+0  00000+0 0  9999
2 42950   0.0013 162.7363 0002761  24.2588 168.4032  1.00270940 29467
AZERSPACE 2 (IS-38)     
1 43632U 18074A   25273.98420831  .00000138  00000+0  00000+0 0  9992
2 43632   0.0022 150.2516 0001487  34.3686 224.7903  1.00270468 25848
HORIZONS-3E             
1 43633U 18074B   25273.89035273 -.00000028  00000+0  00000+0 0  9994
2 43633   0.0177 227.7749 0001442  66.4423 205.2120  1.00274120 25747
AT&T T-16               
1 44333U 19034A   25274.05098450 -.00000113  00000+0  00000+0 0  9999
2 44333   0.0252 100.4801 0000601 354.6046 192.4589  1.00269262 23031
INTELSAT 39 (IS-39)     
1 44476U 19049B   25274.50597362  .00000035  00000+0  00000+0 0  9991
2 44476   0.0197 214.9462 0000418 156.8912 242.7680  1.00271004 22533
GALAXY 30 (G-30)        
1 46114U 20056C   25274.04621781  .00000000  00000+0  00000+0 0  9996
2 46114   0.0211 163.0110 0002379  24.0251  74.6401  1.00270206 18693
GALAXY 33 (G-33)        
1 54026U 22128A   25274.04465780  .00000080  00000+0  00000+0 0  9992
2 54026   0.0169 256.0908 0001840 280.2796  76.7600  1.00271808 11142
GALAXY 34 (G-34)        
1 54027U 22128B   25274.32009568  .00000060  00000+0  00000+0 0  9990
2 54027   0.0150 226.5382 0001478 328.2322 161.7773  1.00272442 11316
GALAXY 31 (G-31)        
1 54243U 22153A   25274.22896067  .00000014  00000+0  00000+0 0  9994
2 54243   0.0190 225.1091 0001483 341.4602 125.0907  1.00272479  4534
GALAXY 32 (G-32)        
1 54244U 22153B   25274.15450265  .00000000  00000+0  00000+0 0  9998
2 54244   0.0156 192.0402 0000079   7.8758 134.8379  1.00273593 10547
GALAXY 35 (G-35)        
1 54741U 22170A   25274.43323896 -.00000161  00000+0  00000+0 0  9998
2 54741   0.0190 132.9599 0001994  50.1335 250.1965  1.00271234 10291
GALAXY 36 (G-36)        
1 54742U 22170B   25274.37775301 -.00000184  00000+0  00000+0 0  9999
2 54742   0.0094 176.4766 0001732 326.3597 274.5295  1.00270959 10178
GALAXY 37 (G-37)        
1 57493U 23112A   25274.32178248  .00000000  00000+0  00000+0 0  9990
2 57493   0.0166 170.3991 0002161  31.0516 157.6925  1.00271139  7948
